{
  "type": "FeatureCollection",
  "features": [
    {
      "type": "Feature",
      "properties": {
        "norad_id": 66919,
        "name": "HULIANWANG DIGUI-109",
        "group": "last-30-days",
        "lat": 48.47157953284282,
        "lon": 131.3395625145282,
        "alt_km": 877.4786707769144,
        "timestamp": "2025-12-26T19:22:37.607266+00:00",
        "meta_object_name": "HULIANWANG DIGUI-109",
        "meta_object_id": "2025-285E",
        "meta_epoch": "2025-12-26T15:35:21.520032",
        "meta_mean_motion": 14.02984714,
        "meta_eccentricity": 0.00080142,
        "meta_inclination": 50.0077,
        "meta_ra_of_asc_node": 60.5729,
        "meta_arg_of_pericenter": 339.6246,
        "meta_mean_anomaly": 20.4338,
        "meta_ephemeris_type": 0,
        "meta_classification_type": "U",
        "meta_norad_cat_id": 66919,
        "meta_element_set_no": 999,
        "meta_rev_at_epoch": 286,
        "meta_bstar": 0.00013453744,
        "meta_mean_motion_dot": 5.9e-07,
        "meta_mean_motion_ddot": 0,
        "tle_line1": "1 66919U 25285E   25360.64955463  .00000059  00000+0  13454-3 0  9994",
        "tle_line2": "2 66919  50.0077  60.5729 0008014 339.6246  20.4338 14.02984714  2863"
      },
      "geometry": {
        "type": "Point",
        "coordinates": [
          131.3395625145282,
          48.47157953284282
        ]
      }
    },
    {
      "type": "Feature",
      "properties": {
        "norad_id": 66920,
        "name": "HULIANWANG DIGUI-110",
        "group": "last-30-days",
        "lat": 49.251447703334314,
        "lon": 136.8545686738203,
        "alt_km": 877.1281969443744,
        "timestamp": "2025-12-26T19:22:37.607276+00:00",
        "meta_object_name": "HULIANWANG DIGUI-110",
        "meta_object_id": "2025-285F",
        "meta_epoch": "2025-12-26T15:34:19.108992",
        "meta_mean_motion": 14.03114607,
        "meta_eccentricity": 0.00057035,
        "meta_inclination": 50.0121,
        "meta_ra_of_asc_node": 60.5771,
        "meta_arg_of_pericenter": 337.3186,
        "meta_mean_anomaly": 22.7465,
        "meta_ephemeris_type": 0,
        "meta_classification_type": "U",
        "meta_norad_cat_id": 66920,
        "meta_element_set_no": 999,
        "meta_rev_at_epoch": 286,
        "meta_bstar": 0.00015314362,
        "meta_mean_motion_dot": 8.8e-07,
        "meta_mean_motion_ddot": 0,
        "tle_line1": "1 66920U 25285F   25360.64883228  .00000088  00000+0  15314-3 0  9994",
        "tle_line2": "2 66920  50.0121  60.5771 0005703 337.3186  22.7465 14.03114607  2865"
      },
      "geometry": {
        "type": "Point",
        "coordinates": [
          136.8545686738203,
          49.251447703334314
        ]
      }
    },
    {
      "type": "Feature",
      "properties": {
        "norad_id": 66921,
        "name": "HULIANWANG DIGUI-111",
        "group": "last-30-days",
        "lat": 49.78150654089192,
        "lon": 142.89057101124314,
        "alt_km": 876.6417591995323,
        "timestamp": "2025-12-26T19:22:37.607290+00:00",
        "meta_object_name": "HULIANWANG DIGUI-111",
        "meta_object_id": "2025-285G",
        "meta_epoch": "2025-12-26T15:33:13.722336",
        "meta_mean_motion": 14.03318127,
        "meta_eccentricity": 0.0006553,
        "meta_inclination": 50.0127,
        "meta_ra_of_asc_node": 60.5768,
        "meta_arg_of_pericenter": 339.4837,
        "meta_mean_anomaly": 20.5803,
        "meta_ephemeris_type": 0,
        "meta_classification_type": "U",
        "meta_norad_cat_id": 66921,
        "meta_element_set_no": 999,
        "meta_rev_at_epoch": 286,
        "meta_bstar": 0.00014809778,
        "meta_mean_motion_dot": 8.1e-07,
        "meta_mean_motion_ddot": 0,
        "tle_line1": "1 66921U 25285G   25360.64807549  .00000081  00000+0  14810-3 0  9990",
        "tle_line2": "2 66921  50.0127  60.5768 0006553 339.4837  20.5803 14.03318127  2863"
      },
      "geometry": {
        "type": "Point",
        "coordinates": [
          142.89057101124314,
          49.78150654089192
        ]
      }
    },
    {
      "type": "Feature",
      "properties": {
        "norad_id": 66922,
        "name": "HULIANWANG DIGUI-112",
        "group": "last-30-days",
        "lat": 49.96895269243364,
        "lon": 152.24516620707158,
        "alt_km": 875.6940289854601,
        "timestamp": "2025-12-26T19:22:37.607300+00:00",
        "meta_object_name": "HULIANWANG DIGUI-112",
        "meta_object_id": "2025-285H",
        "meta_epoch": "2025-12-26T15:31:32.143584",
        "meta_mean_motion": 14.03439872,
        "meta_eccentricity": 0.00065901,
        "meta_inclination": 50.0101,
        "meta_ra_of_asc_node": 60.5618,
        "meta_arg_of_pericenter": 351.7541,
        "meta_mean_anomaly": 8.3254,
        "meta_ephemeris_type": 0,
        "meta_classification_type": "U",
        "meta_norad_cat_id": 66922,
        "meta_element_set_no": 999,
        "meta_rev_at_epoch": 286,
        "meta_bstar": 6.1345738e-05,
        "meta_mean_motion_dot": -5.5e-07,
        "meta_mean_motion_ddot": 0,
        "tle_line1": "1 66922U 25285H   25360.64689981 -.00000055  00000+0  61346-4 0  9998",
        "tle_line2": "2 66922  50.0101  60.5618 0006590 351.7541   8.3254 14.03439872  2865"
      },
      "geometry": {
        "type": "Point",
        "coordinates": [
          152.24516620707158,
          49.96895269243364
        ]
      }
    },
    {
      "type": "Feature",
      "properties": {
        "norad_id": 66923,
        "name": "HULIANWANG DIGUI-113",
        "group": "last-30-days",
        "lat": 49.30002025627709,
        "lon": 162.52399900952935,
        "alt_km": 876.088889721811,
        "timestamp": "2025-12-26T19:22:37.607313+00:00",
        "meta_object_name": "HULIANWANG DIGUI-113",
        "meta_object_id": "2025-285J",
        "meta_epoch": "2025-12-26T13:47:06.940896",
        "meta_mean_motion": 14.03555416,
        "meta_eccentricity": 0.0005049,
        "meta_inclination": 50.0098,
        "meta_ra_of_asc_node": 60.8464,
        "meta_arg_of_pericenter": 343.8253,
        "meta_mean_anomaly": 16.2489,
        "meta_ephemeris_type": 0,
        "meta_classification_type": "U",
        "meta_norad_cat_id": 66923,
        "meta_element_set_no": 999,
        "meta_rev_at_epoch": 285,
        "meta_bstar": 2.453081e-05,
        "meta_mean_motion_dot": -1.13e-06,
        "meta_mean_motion_ddot": 0,
        "tle_line1": "1 66923U 25285J   25360.57438589 -.00000113  00000+0  24531-4 0  9997",
        "tle_line2": "2 66923  50.0098  60.8464 0005049 343.8253  16.2489 14.03555416  2853"
      },
      "geometry": {
        "type": "Point",
        "coordinates": [
          162.52399900952935,
          49.30002025627709
        ]
      }
    },
    {
      "type": "Feature",
      "properties": {
        "norad_id": 66924,
        "name": "CZ-8A R/B",
        "group": "last-30-days",
        "lat": -1.3775935626179048,
        "lon": -122.5708426433525,
        "alt_km": 713.3438299886038,
        "timestamp": "2025-12-26T19:22:37.607323+00:00",
        "meta_object_name": "CZ-8A R/B",
        "meta_object_id": "2025-285K",
        "meta_epoch": "2025-12-26T10:09:13.778496",
        "meta_mean_motion": 14.3050714,
        "meta_eccentricity": 0.01192259,
        "meta_inclination": 50.0085,
        "meta_ra_of_asc_node": 57.9089,
        "meta_arg_of_pericenter": 154.9829,
        "meta_mean_anomaly": 205.6928,
        "meta_ephemeris_type": 0,
        "meta_classification_type": "U",
        "meta_norad_cat_id": 66924,
        "meta_element_set_no": 999,
        "meta_rev_at_epoch": 288,
        "meta_bstar": 7.3330755e-05,
        "meta_mean_motion_dot": 4.2e-07,
        "meta_mean_motion_ddot": 0,
        "tle_line1": "1 66924U 25285K   25360.42307614  .00000042  00000+0  73331-4 0  9998",
        "tle_line2": "2 66924  50.0085  57.9089 0119225 154.9829 205.6928 14.30507140  2888"
      },
      "geometry": {
        "type": "Point",
        "coordinates": [
          -122.5708426433525,
          -1.3775935626179048
        ]
      }
    },
    {
      "type": "Feature",
      "properties": {
        "norad_id": 66925,
        "name": "STARLINK-35945",
        "group": "last-30-days",
        "lat": -18.279109516023908,
        "lon": 174.79344631317866,
        "alt_km": 402.6651090090354,
        "timestamp": "2025-12-26T19:22:37.607333+00:00",
        "meta_object_name": "STARLINK-35945",
        "meta_object_id": "2025-286A",
        "meta_epoch": "2025-12-26T14:00:04.000032",
        "meta_mean_motion": 15.56974792,
        "meta_eccentricity": 0.00010262,
        "meta_inclination": 53.159,
        "meta_ra_of_asc_node": 341.5377,
        "meta_arg_of_pericenter": 73.7905,
        "meta_mean_anomaly": 313.327,
        "meta_ephemeris_type": 0,
        "meta_classification_type": "U",
        "meta_norad_cat_id": 66925,
        "meta_element_set_no": 999,
        "meta_rev_at_epoch": 421,
        "meta_bstar": -0.031464243,
        "meta_mean_motion_dot": -0.02061455,
        "meta_mean_motion_ddot": 0,
        "tle_line1": "1 66925U 25286A   25360.58337963 -.02061455  00000+0 -31464-1 0  9994",
        "tle_line2": "2 66925  53.1590 341.5377 0001026  73.7905 313.3270 15.56974792  4214"
      },
      "geometry": {
        "type": "Point",
        "coordinates": [
          174.79344631317866,
          -18.279109516023908
        ]
      }
    }
  ]
}